      2.10          N: GNSS NAV DATA                        RINEX VERSION / TYPE
fic2rin                                 10/28/2024 00:59:02 PGM / RUN BY / DATE
                                                            END OF HEADER
2  24 10 27  2  0  0.0 -.328267458826D-03  .841282599140D-11  .000000000000D+00
     .360000000000D+02 -.953125000000D+01  .425339145654D-08  .176596042416D+01
    -.540167093277D-06  .162987322547D-01  .910274684429D-05  .515368721390D+04
     .720000000000D+04  .299885869026D-06 -.817277284205D+00 -.409781932831D-07
     .966875619073D+00  .197625000000D+03 -.111191360088D+01 -.773425073402D-08
    -.339657005220D-09  .100000000000D+01  .233800000000D+04  .000000000000D+00
     .240000000000D+01  .000000000000D+00 -.176951289177D-07  .360000000000D+02
     .000000000000D+00  .400000000000D+01
5  24 10 27  2  0  0.0 -.191071536392D-03 -.125055521494D-11  .000000000000D+00
     .370000000000D+02  .329062500000D+02  .433232331580D-08  .193401749216D+01
     .152736902237D-05  .575683487114D-02  .530108809471D-05  .515368927956D+04
     .720000000000D+04  .745058059692D-07  .266387121327D+00 -.154599547386D-06
     .973743093428D+00  .285156250000D+03  .133638792613D+01 -.809390857235D-08
     .208222959036D-09  .100000000000D+01  .233800000000D+04  .000000000000D+00
     .240000000000D+01  .000000000000D+00 -.107102096081D-07  .370000000000D+02
     .000000000000D+00  .400000000000D+01
7  24 10 27  2  0  0.0 -.243564136326D-04  .295585778076D-11  .000000000000D+00
     .750000000000D+02 -.903125000000D+01  .458376236067D-08 -.117736191371D+01
    -.137835741043D-06  .187963704811D-01  .102110207081D-04  .515360242462D+04
     .720000000000D+04  .283122062683D-06  .240905381657D+01  .385567545891D-06
     .950499424436D+00  .174500000000D+03 -.209655849296D+01 -.805890711440D-08
     .115719105880D-09  .100000000000D+01  .233800000000D+04  .000000000000D+00
     .240000000000D+01  .000000000000D+00 -.107102096081D-07  .750000000000D+02
     .000000000000D+00  .400000000000D+01
4  24 10 27  2  0  0.0  .468830112368D-03  .670752342558D-11  .000000000000D+00
     .117000000000D+03 -.674062500000D+02  .443875632059D-08  .131077632819D+01
    -.341609120369D-05  .309782789554D-02  .571645796299D-05  .515369488144D+04
     .720000000000D+04 -.856816768646D-07  .139685261835D+01  .484287738800D-07
     .965646454822D+00  .272687500000D+03 -.300757902786D+01 -.809855162290D-08
    -.169292766009D-09  .100000000000D+01  .233800000000D+04  .000000000000D+00
     .240000000000D+01  .000000000000D+00 -.465661287308D-08  .885000000000D+03
     .000000000000D+00  .400000000000D+01
15 24 10 27 22  0  0.0  .220809597522D-03  .443378667114D-11  .000000000000D+00
     .370000000000D+02 -.373125000000D+02  .533165065608D-08 -.145110012232D+01
    -.146776437759D-05  .161809014389D-01  .370852649212D-05  .515371476555D+04
     .792000000000D+05  .197440385818D-06  .120365674267D+01  .378116965294D-06
     .936510687235D+00  .291000000000D+03  .137122315965D+01 -.863535969739D-08
    -.157149403046D-10  .100000000000D+01  .233800000000D+04  .000000000000D+00
     .240000000000D+01  .000000000000D+00 -.102445483208D-07  .370000000000D+02
     .720000000000D+05  .400000000000D+01
8  24 10 27 22  0  0.0  .397088006139D-03  .110276232590D-10  .000000000000D+00
     .340000000000D+02 -.259687500000D+02  .508235455761D-08 -.438358131559D+00
    -.145845115185D-05  .984468590468D-02  .469200313091D-05  .515369717216D+04
     .792000000000D+05  .121071934700D-06 -.181765089508D+01  .135973095894D-06
     .950551052278D+00  .282468750000D+03  .374368722554D+00 -.855142762986D-08
    -.421803284086D-09  .100000000000D+01  .233800000000D+04  .000000000000D+00
     .240000000000D+01  .000000000000D+00  .465661287308D-08  .340000000000D+02
     .720000000000D+05  .400000000000D+01
4  24 10 27 22  0  0.0  .469310209155D-03  .670752342558D-11  .000000000000D+00
     .127000000000D+03 -.548750000000D+02  .460804908660D-08 -.754136500812D+00
    -.288896262646D-05  .309921475127D-02  .545382499695D-05  .515369157791D+04
     .792000000000D+05  .428408384323D-07  .139626246842D+01  .745058059692D-08
     .965629607858D+00  .273000000000D+03 -.300734601281D+01 -.821748514838D-08
    -.111790370803D-09  .100000000000D+01  .233800000000D+04  .000000000000D+00
     .240000000000D+01  .000000000000D+00 -.465661287308D-08  .895000000000D+03
     .720000000000D+05  .400000000000D+01
23 24 10 27 22  0  0.0  .350847374648D-03  .807176547823D-11  .000000000000D+00
     .200000000000D+02  .498125000000D+02  .398266589402D-08  .268982884546D+01
     .267662107944D-05  .484451430384D-02  .682473182678D-05  .515361786461D+04
     .792000000000D+05 -.111758708954D-06  .286867534099D+00 -.298023223877D-07
     .981624094984D+00  .256500000000D+03 -.292280518099D+01 -.785997025645D-08
     .432160858377D-09  .100000000000D+01  .233800000000D+04  .000000000000D+00
     .240000000000D+01  .000000000000D+00 -.838190317154D-08  .200000000000D+02
     .720000000000D+05  .400000000000D+01
12 24 10 27 22  0  0.0 -.548106618226D-03 -.261479726760D-11  .000000000000D+00
     .790000000000D+02  .646562500000D+02  .469983862429D-08  .232463105394D+01
     .317580997944D-05  .878697854932D-02  .657327473164D-05  .515357553101D+04
     .792000000000D+05  .242143869400D-07 -.275912347129D+01 -.141561031342D-06
     .961770226619D+00  .247781250000D+03  .146484302491D+01 -.804890669784D-08
     .210723063176D-09  .100000000000D+01  .233800000000D+04  .000000000000D+00
     .240000000000D+01  .000000000000D+00 -.125728547573D-07  .790000000000D+02
     .720000000000D+05  .400000000000D+01
10 24 10 27 22  0  0.0 -.173978041857D-03 -.138697942020D-10  .000000000000D+00
     .610000000000D+02  .416875000000D+02  .394516433193D-08  .152227125365D+01
     .219047069550D-05  .985964399297D-02  .682286918163D-05  .515368617821D+04
     .792000000000D+05 -.208616256714D-06  .316583364796D+00  .819563865662D-07
     .986484246777D+00  .262656250000D+03 -.236882926745D+01 -.797211778499D-08
     .324656380384D-09  .100000000000D+01  .233800000000D+04  .000000000000D+00
     .240000000000D+01  .000000000000D+00  .232830643654D-08  .610000000000D+02
     .720000000000D+05  .400000000000D+01
31 24 10 27 22  0  0.0 -.222727190703D-03  .568434188608D-12  .000000000000D+00
     .630000000000D+02 -.225312500000D+02  .456197573889D-08  .198306582770D+01
    -.116042792797D-05  .106939524412D-01  .114031136036D-04  .515359409904D+04
     .792000000000D+05 -.262632966042D-06  .243063373223D+01 -.121071934700D-06
     .954448276282D+00  .159593750000D+03  .759589519175D+00 -.793925927344D-08
    -.678599694973D-11  .100000000000D+01  .233800000000D+04  .000000000000D+00
     .240000000000D+01  .000000000000D+00 -.130385160446D-07  .630000000000D+02
     .720000000000D+05  .400000000000D+01
24 24 10 27 22  0  0.0 -.483163166791D-03  .159161572810D-11  .000000000000D+00
     .540000000000D+02 -.439375000000D+02  .495413493103D-08 -.233700469740D+01
    -.247918069363D-05  .161980122793D-01  .107213854790D-04  .515370145226D+04
     .792000000000D+05  .240281224251D-06  .230877343597D+01 -.689178705215D-07
     .934163073836D+00  .153031250000D+03  .102335648108D+01 -.798211820155D-08
     .100718481043D-09  .100000000000D+01  .233800000000D+04  .000000000000D+00
     .240000000000D+01  .000000000000D+00  .232830643654D-08  .540000000000D+02
     .720000000000D+05  .400000000000D+01
30 24 10 27 22  0  0.0 -.293835997581D-03  .761701812735D-11  .000000000000D+00
     .470000000000D+02 -.210625000000D+02  .496199240119D-08  .291440160754D+01
    -.104866921902D-05  .713246571831D-02  .118315219879D-04  .515379289627D+04
     .792000000000D+05 -.130385160446D-07  .240679758581D+01 -.782310962677D-07
     .935655980273D+00  .140187500000D+03 -.246137599307D+01 -.802962018020D-08
     .482162941165D-10  .100000000000D+01  .233800000000D+04  .000000000000D+00
     .240000000000D+01  .000000000000D+00  .372529029846D-08  .470000000000D+02
     .720000000000D+05  .400000000000D+01
27 24 10 27 22  0  0.0 -.347141176462D-04 -.113686837722D-12  .000000000000D+00
     .107000000000D+03 -.240937500000D+02  .493234830925D-08 -.382702216375D+00
    -.123493373394D-05  .127494432963D-01  .463984906673D-05  .515368095398D+04
     .792000000000D+05 -.447034835815D-07 -.178983858267D+01  .180676579475D-06
     .959583114351D+00  .286750000000D+03  .799323560635D+00 -.857607151352D-08
    -.427874965567D-09  .100000000000D+01  .233800000000D+04  .000000000000D+00
     .240000000000D+01  .000000000000D+00  .186264514923D-08  .107000000000D+03
     .720000000000D+05  .400000000000D+01
29 24 10 27 22  0  0.0 -.568187329918D-03  .272848410532D-11  .000000000000D+00
     .810000000000D+02 -.330000000000D+02  .456126142342D-08 -.545847080493D+00
    -.178068876266D-05  .288678880315D-02  .526942312717D-05  .515375079536D+04
     .792000000000D+05 -.186264514923D-08 -.170506109898D+01 -.856816768646D-07
     .968795889232D+00  .282593750000D+03  .268055218056D+01 -.820462746995D-08
    -.410017078857D-09  .100000000000D+01  .233800000000D+04  .000000000000D+00
     .240000000000D+01  .000000000000D+00 -.977888703346D-08  .810000000000D+02
     .720000000000D+05  .400000000000D+01
32 24 10 27 22  0  0.0 -.581494998187D-03  .477484718431D-11  .000000000000D+00
     .440000000000D+02 -.498437500000D+02  .474626912973D-08  .250896706032D+00
    -.272132456303D-05  .795173028018D-02  .513717532158D-05  .515374204636D+04
     .792000000000D+05 -.108033418655D-06  .135076444926D+01  .856816768646D-07
     .962690249947D+00  .283812500000D+03 -.213319640874D+01 -.839106380720D-08
    -.106433004790D-09  .100000000000D+01  .233800000000D+04  .000000000000D+00
     .240000000000D+01  .000000000000D+00  .931322574615D-09  .440000000000D+02
     .720000000000D+05  .400000000000D+01
